NORAD_CAT_ID,OBJECT_NAME,OBJECT_TYPE,EPOCH,MEAN_MOTION,ECCENTRICITY,INCLINATION,RA_OF_ASC_NODE,ARG_OF_PERICENTER,MEAN_ANOMALY,BSTAR,MEAN_MOTION_DOT,MEAN_MOTION_DDOT,TLE_LINE0,TLE_LINE1,TLE_LINE2,SEMIMAJOR_AXIS,PERIOD,APOGEE,PERIGEE,DECAYED
52137.0,STARLINK-3733,PAYLOAD,2023-07-02 07:21:11,15.08837547,0.0001199,53.2163,154.7179,89.8961,270.2168,4.0045e-05,3.49e-06,0.0,0 STARLINK-3733,1 52137U 22029BB  23183.30638702  .00000349  00000-0  40045-4 0  9992,2 52137  53.2163 154.7179 0001199  89.8961 270.2168 15.08837547 72783,6917.888,95.438,540.582,538.923,0.0
52137.0,STARLINK-3733,PAYLOAD,2023-07-03 15:08:54,15.08838912,0.000117,53.2159,148.7706,89.9124,270.2003,2.7072e-05,1.43e-06,0.0,0 STARLINK-3733,1 52137U 22029BB  23184.63118708  .00000143  00000-0  27072-4 0  9995,2 52137  53.2159 148.7706 0001170  89.9124 270.2003 15.08838912 72985,6917.884,95.438,540.558,538.939,0.0
52137.0,STARLINK-3733,PAYLOAD,2023-07-05 00:32:00,15.08844806,0.0001183,53.216,142.5263,88.5343,271.5785,5.7497e-05,6.27e-06,0.0,0 STARLINK-3733,1 52137U 22029BB  23186.02222304  .00000627  00000-0  57497-4 0  9999,2 52137  53.2160 142.5263 0001183  88.5343 271.5785 15.08844806 73193,6917.866,95.437,540.549,538.912,0.0
52137.0,STARLINK-3733,PAYLOAD,2023-07-06 00:22:47,15.08832894,0.0001345,53.2172,138.0656,85.8358,274.2788,6.81e-06,-1.8e-06,0.0,0 STARLINK-3733,1 52137U 22029BB  23187.01583279 -.00000180  00000-0  68100-5 0  9999,2 52137  53.2172 138.0656 0001345  85.8358 274.2788 15.08832894 73342,6917.902,95.438,540.698,538.837,0.0
52137.0,STARLINK-3733,PAYLOAD,2023-07-07 03:24:21,15.08840049,0.0001209,53.2169,133.0104,91.8282,268.2849,-1.8808e-06,-3.18e-06,0.0,0 STARLINK-3733,1 52137U 22029BB  23188.14190982 -.00000318  00000-0 -18808-5 0  9993,2 52137  53.2169 133.0104 0001209  91.8282 268.2849 15.08840049 73514,6917.88,95.438,540.582,538.909,0.0
52137.0,STARLINK-3733,PAYLOAD,2023-07-08 12:47:28,15.08824328,0.0001123,53.2161,126.7703,99.6685,260.4434,-3.1167e-05,-7.84e-06,0.0,0 STARLINK-3733,1 52137U 22029BB  23189.53296532 -.00000784  00000-0 -31167-4 0  9994,2 52137  53.2161 126.7703 0001123  99.6685 260.4434 15.08824328 73727,6917.928,95.439,540.57,539.016,0.0
52137.0,STARLINK-3733,PAYLOAD,2023-07-09 04:41:20,15.0882227,0.0001179,53.2164,123.7933,92.3864,267.7263,-0.00014142,-2.537e-05,0.0,0 STARLINK-3733,1 52137U 22029BB  23190.19537969 -.00002537  00000-0 -14142-3 0  9991,2 52137  53.2164 123.7933 0001179  92.3864 267.7263 15.08822270 73827,6917.935,95.439,540.615,538.984,0.0
52137.0,STARLINK-3733,PAYLOAD,2023-07-09 12:38:15,15.08830876,0.0001182,53.2163,122.3068,100.7132,259.3993,-6.4601e-05,-1.316e-05,0.0,0 STARLINK-3733,1 52137U 22029BB  23190.52657402 -.00001316  00000-0 -64601-4 0  9993,2 52137  53.2163 122.3068 0001182 100.7132 259.3993 15.08830876 73879,6917.908,95.438,540.591,538.956,0.0
52137.0,STARLINK-3733,PAYLOAD,2023-07-10 04:32:06,15.08828473,0.0001351,53.2165,119.3329,116.7324,243.3807,0.00037745,5.722e-05,0.0,0 STARLINK-3733,1 52137U 22029BB  23191.18896338  .00005722  00000-0  37745-3 0  9990,2 52137  53.2165 119.3329 0001351 116.7324 243.3807 15.08828473 73973,6917.916,95.438,540.715,538.846,0.0
52137.0,STARLINK-3733,PAYLOAD,2023-07-11 01:12:06,15.08842189,0.0001085,53.2168,115.4663,97.8515,262.26,0.00031196,4.681e-05,0.0,0 STARLINK-3733,1 52137U 22029BB  23192.05007852  .00004681  00000-0  31196-3 0  9999,2 52137  53.2168 115.4663 0001085  97.8515 262.2600 15.08842189 74106,6917.874,95.437,540.489,538.988,0.0
52137.0,STARLINK-3733,PAYLOAD,2023-07-12 04:13:39,15.0886057,0.0001224,53.2175,110.4097,95.5856,264.5275,5.7418e-05,6.27e-06,0.0,0 STARLINK-3733,1 52137U 22029BB  23193.17614824  .00000627  00000-0  57418-4 0  9998,2 52137  53.2175 110.4097 0001224  95.5856 264.5275 15.08860570 74273,6917.818,95.436,540.529,538.836,0.0
52137.0,STARLINK-3733,PAYLOAD,2023-07-12 12:10:36,15.08842701,0.0001622,53.2177,108.923,92.9165,267.2012,-8.0587e-05,-1.57e-05,0.0,0 STARLINK-3733,1 52137U 22029BB  23193.50736255 -.00001570  00000-0 -80587-4 0  9991,2 52137  53.2177 108.9230 0001622  92.9165 267.2012 15.08842701 74323,6917.872,95.437,540.859,538.615,0.0
52137.0,STARLINK-3733,PAYLOAD,2023-07-13 21:33:41,15.08840223,0.0001273,53.2167,102.6804,80.6516,279.462,-3.5968e-05,-8.6e-06,0.0,0 STARLINK-3733,1 52137U 22029BB  23194.89839894 -.00000860  00000-0 -35968-4 0  9991,2 52137  53.2167 102.6804 0001273  80.6516 279.4620 15.08840223 74536,6917.88,95.438,540.625,538.864,0.0
52137.0,STARLINK-3733,PAYLOAD,2023-07-14 18:13:42,15.08823976,0.0001325,53.2175,98.8124,81.5589,278.5553,0.0002204,3.22e-05,0.0,0 STARLINK-3733,1 52137U 22029BB  23195.75952217  .00003220  00000-0  22040-3 0  9999,2 52137  53.2175  98.8124 0001325  81.5589 278.5553 15.08823976 74669,6917.929,95.439,540.711,538.878,0.0
52137.0,STARLINK-3733,PAYLOAD,2023-07-15 00:35:14,15.08841722,0.0001242,53.2165,97.6261,78.3809,281.7323,0.00014897,2.084e-05,0.0,0 STARLINK-3733,1 52137U 22029BB  23196.02447406  .00002084  00000-0  14897-3 0  9997,2 52137  53.2165  97.6261 0001242  78.3809 281.7323 15.08841722 74709,6917.875,95.437,540.599,538.881,0.0
52137.0,STARLINK-3733,PAYLOAD,2023-07-15 16:29:06,15.08838535,0.0001147,53.2161,94.6534,92.2525,267.8598,2.8251e-05,1.62e-06,0.0,0 STARLINK-3733,1 52137U 22029BB  23196.68688003  .00000162  00000-0  28251-4 0  9994,2 52137  53.2161  94.6534 0001147  92.2525 267.8598 15.08838535 74807,6917.885,95.438,540.543,538.956,0.0
52137.0,STARLINK-3733,PAYLOAD,2023-07-16 09:58:21,15.08834705,0.0001203,53.2175,91.3793,79.6868,280.426,-2.1523e-05,-6.3e-06,0.0,0 STARLINK-3733,1 52137U 22029BB  23197.41552591 -.00000630  00000-0 -21523-4 0  9995,2 52137  53.2175  91.3793 0001203  79.6868 280.4260 15.08834705 74919,6917.897,95.438,540.594,538.929,0.0
52137.0,STARLINK-3733,PAYLOAD,2023-07-16 22:41:26,15.08841648,0.0001132,53.2173,89.0004,87.3913,272.7209,4.1943e-06,-2.21e-06,0.0,0 STARLINK-3733,1 52137U 22029BB  23197.94544213 -.00000221  00000-0  41943-5 0  9999,2 52137  53.2173  89.0004 0001132  87.3913 272.7209 15.08841648 74993,6917.875,95.437,540.523,538.957,0.0
52137.0,STARLINK-3733,PAYLOAD,2023-07-18 11:15:18,15.08840793,0.0001324,53.2165,82.1635,90.0096,270.1048,6.4829e-05,7.44e-06,0.0,0 STARLINK-3733,1 52137U 22029BB  23199.46895915  .00000744  00000-0  64829-4 0  9992,2 52137  53.2165  82.1635 0001324  90.0096 270.1048 15.08840793 75224,6917.878,95.438,540.659,538.827,0.0
52137.0,STARLINK-3733,PAYLOAD,2023-07-19 17:27:38,15.08828683,0.0001331,53.2165,76.5125,91.6359,268.4786,-0.00010085,-1.892e-05,0.0,0 STARLINK-3733,1 52137U 22029BB  23200.72753446 -.00001892  00000-0 -10085-3 0  9997,2 52137  53.2165  76.5125 0001331  91.6359 268.4786 15.08828683 75416,6917.915,95.438,540.701,538.859,0.0
52137.0,STARLINK-3733,PAYLOAD,2023-07-20 17:18:24,15.08833224,0.000144,53.217,72.0489,135.3344,224.7764,0.00019367,2.795e-05,0.0,0 STARLINK-3733,1 52137U 22029BB  23201.72112172  .00002795  00000-0  19367-3 0  9996,2 52137  53.2170  72.0489 0001440 135.3344 224.7764 15.08833224 75561,6917.901,95.438,540.762,538.77,0.0
52137.0,STARLINK-3733,PAYLOAD,2023-07-21 01:15:19,15.08862641,0.0001209,53.217,70.563,119.6336,240.4777,-7.963e-05,-1.556e-05,0.0,0 STARLINK-3733,1 52137U 22029BB  23202.05231286 -.00001556  00000-0 -79630-4 0  9997,2 52137  53.2170  70.5630 0001209 119.6336 240.4777 15.08862641 75611,6917.811,95.436,540.513,538.84,0.0
52137.0,STARLINK-3733,PAYLOAD,2023-07-21 17:09:12,15.08831034,0.0001161,53.217,67.5893,116.747,243.3641,8.8447e-05,1.12e-05,0.0,0 STARLINK-3733,1 52137U 22029BB  23202.71472889  .00001120  00000-0  88447-4 0  9997,2 52137  53.2170  67.5893 0001161 116.7470 243.3641 15.08831034 75717,6917.908,95.438,540.576,538.97,0.0
52137.0,STARLINK-3733,PAYLOAD,2023-07-24 00:47:42,15.08840287,0.0001024,53.2175,57.1829,94.5576,265.5534,5.8309e-06,-1.95e-06,0.0,0 STARLINK-3733,1 52137U 22029BB  23205.03313013 -.00000195  00000-0  58309-5 0  9995,2 52137  53.2175  57.1829 0001024  94.5576 265.5534 15.08840287 76060,6917.88,95.438,540.453,539.036,0.0
52137.0,STARLINK-3733,PAYLOAD,2023-07-25 00:38:28,15.088508,0.0001054,53.2174,52.7222,94.5535,265.5578,0.00012952,1.775e-05,0.0,0 STARLINK-3733,1 52137U 22029BB  23206.02672003  .00001775  00000-0  12952-3 0  9998,2 52137  53.2174  52.7222 0001054  94.5535 265.5578 15.08850800 76212,6917.847,95.437,540.442,538.983,0.0
52137.0,STARLINK-3733,PAYLOAD,2023-07-26 08:26:12,15.08839596,0.0001104,53.2178,46.7758,84.4099,275.7019,5.3407e-05,5.62e-06,0.0,0 STARLINK-3733,1 52137U 22029BB  23207.35153420  .00000562  00000-0  53407-4 0  9996,2 52137  53.2178  46.7758 0001104  84.4099 275.7019 15.08839596 76416,6917.882,95.438,540.51,538.983,0.0
52137.0,STARLINK-3733,PAYLOAD,2023-07-26 14:47:44,15.08848845,0.0001114,53.2176,45.5873,88.8199,271.2921,9.9466e-06,-1.29e-06,0.0,0 STARLINK-3733,1 52137U 22029BB  23207.61648987 -.00000129  00000-0  99466-5 0  9998,2 52137  53.2176  45.5873 0001114  88.8199 271.2921 15.08848845 76453,6917.853,95.437,540.489,538.948,0.0
52137.0,STARLINK-3733,PAYLOAD,2023-07-26 22:44:39,15.08858809,0.0001076,53.2173,44.0993,87.179,272.9325,9.2332e-05,1.183e-05,0.0,0 STARLINK-3733,1 52137U 22029BB  23207.94767885  .00001183  00000-0  92332-4 0  9997,2 52137  53.2173  44.0993 0001076  87.1790 272.9325 15.08858809 76506,6917.823,95.436,540.432,538.944,0.0
52137.0,STARLINK-3733,PAYLOAD,2023-07-27 08:16:59,15.08842864,9.62e-05,53.2177,42.3148,103.6087,256.5012,-6.8527e-05,-1.378e-05,0.0,0 STARLINK-3733,1 52137U 22029BB  23208.34512986 -.00001378  00000-0 -68527-4 0  9999,2 52137  53.2177  42.3148 0000962 103.6087 256.5012 15.08842864 76560,6917.872,95.437,540.402,539.071,0.0
52137.0,STARLINK-3733,PAYLOAD,2023-07-27 14:38:32,15.08833097,9.48e-05,53.2181,41.1274,82.2353,277.8747,-6.3873e-06,-3.89e-06,0.0,0 STARLINK-3733,1 52137U 22029BB  23208.61009831 -.00000389  00000-0 -63873-5 0  9990,2 52137  53.2181  41.1274 0000948  82.2353 277.8747 15.08833097 76608,6917.901,95.438,540.422,539.111,0.0
